{
  "type": "FeatureCollection",
  "features": [
    {
      "type": "Feature",
      "properties": {
        "norad_id": 34434,
        "name": "COSMOS 2251 DEB",
        "group": "cosmos-2251-debris",
        "lat": -73.90298998151067,
        "lon": -64.17626288638888,
        "alt_km": 1020.5206292538151,
        "timestamp": "2025-12-08T05:48:09.427968+00:00",
        "meta_object_name": "COSMOS 2251 DEB",
        "meta_object_id": "1993-036SB",
        "meta_epoch": "2025-12-07T21:56:18.208032",
        "meta_mean_motion": 13.89759845,
        "meta_eccentricity": 0.02754919,
        "meta_inclination": 74.0629,
        "meta_ra_of_asc_node": 18.3303,
        "meta_arg_of_pericenter": 156.7515,
        "meta_mean_anomaly": 273.8418,
        "meta_ephemeris_type": 0,
        "meta_classification_type": "U",
        "meta_norad_cat_id": 34434,
        "meta_element_set_no": 999,
        "meta_rev_at_epoch": 83899,
        "meta_bstar": 0.0029860954,
        "meta_mean_motion_dot": 4.956e-05,
        "meta_mean_motion_ddot": 0,
        "tle_line1": "1 34434U 93036SB  25341.91409963  .00004956  00000+0  29861-2 0  9996",
        "tle_line2": "2 34434  74.0629  18.3303 0275491 156.7515 273.8418 13.89759845838993"
      },
      "geometry": {
        "type": "Point",
        "coordinates": [
          -64.17626288638888,
          -73.90298998151067
        ]
      }
    },
    {
      "type": "Feature",
      "properties": {
        "norad_id": 34446,
        "name": "COSMOS 2251 DEB",
        "group": "cosmos-2251-debris",
        "lat": -30.982149338868464,
        "lon": -104.39068195059401,
        "alt_km": 697.2458244312757,
        "timestamp": "2025-12-08T05:48:09.427978+00:00",
        "meta_object_name": "COSMOS 2251 DEB",
        "meta_object_id": "1993-036SP",
        "meta_epoch": "2025-12-07T22:11:56.988960",
        "meta_mean_motion": 14.49343721,
        "meta_eccentricity": 0.00513761,
        "meta_inclination": 74.0422,
        "meta_ra_of_asc_node": 66.3103,
        "meta_arg_of_pericenter": 205.4483,
        "meta_mean_anomaly": 154.4148,
        "meta_ephemeris_type": 0,
        "meta_classification_type": "U",
        "meta_norad_cat_id": 34446,
        "meta_element_set_no": 999,
        "meta_rev_at_epoch": 88624,
        "meta_bstar": 0.00025813568,
        "meta_mean_motion_dot": 9.74e-06,
        "meta_mean_motion_ddot": 0,
        "tle_line1": "1 34446U 93036SP  25341.92496515  .00000974  00000+0  25814-3 0  9990",
        "tle_line2": "2 34446  74.0422  66.3103 0051376 205.4483 154.4148 14.49343721886242"
      },
      "geometry": {
        "type": "Point",
        "coordinates": [
          -104.39068195059401,
          -30.982149338868464
        ]
      }
    },
    {
      "type": "Feature",
      "properties": {
        "norad_id": 34449,
        "name": "COSMOS 2251 DEB",
        "group": "cosmos-2251-debris",
        "lat": -13.497494127238813,
        "lon": 75.68636481213606,
        "alt_km": 600.8313768564849,
        "timestamp": "2025-12-08T05:48:09.427987+00:00",
        "meta_object_name": "COSMOS 2251 DEB",
        "meta_object_id": "1993-036SS",
        "meta_epoch": "2025-12-07T17:33:00.173664",
        "meta_mean_motion": 14.94416925,
        "meta_eccentricity": 0.00237185,
        "meta_inclination": 74.033,
        "meta_ra_of_asc_node": 80.6555,
        "meta_arg_of_pericenter": 126.8652,
        "meta_mean_anomaly": 353.9251,
        "meta_ephemeris_type": 0,
        "meta_classification_type": "U",
        "meta_norad_cat_id": 34449,
        "meta_element_set_no": 999,
        "meta_rev_at_epoch": 88618,
        "meta_bstar": 0.0049247596,
        "meta_mean_motion_dot": 0.00053737,
        "meta_mean_motion_ddot": 0,
        "tle_line1": "1 34449U 93036SS  25341.73125201  .00053737  00000+0  49248-2 0  9994",
        "tle_line2": "2 34449  74.0330  80.6555 0023718 126.8652 353.9251 14.94416925886187"
      },
      "geometry": {
        "type": "Point",
        "coordinates": [
          75.68636481213606,
          -13.497494127238813
        ]
      }
    },
    {
      "type": "Feature",
      "properties": {
        "norad_id": 34451,
        "name": "COSMOS 2251 DEB",
        "group": "cosmos-2251-debris",
        "lat": -51.09540534726791,
        "lon": 76.18044351565895,
        "alt_km": 605.8076848549817,
        "timestamp": "2025-12-08T05:48:09.427998+00:00",
        "meta_object_name": "COSMOS 2251 DEB",
        "meta_object_id": "1993-036SU",
        "meta_epoch": "2025-12-07T07:33:43.262784",
        "meta_mean_motion": 14.95062608,
        "meta_eccentricity": 0.00250619,
        "meta_inclination": 74.0467,
        "meta_ra_of_asc_node": 98.8077,
        "meta_arg_of_pericenter": 122.0899,
        "meta_mean_anomaly": 238.2724,
        "meta_ephemeris_type": 0,
        "meta_classification_type": "U",
        "meta_norad_cat_id": 34451,
        "meta_element_set_no": 999,
        "meta_rev_at_epoch": 88554,
        "meta_bstar": 0.0046844553,
        "meta_mean_motion_dot": 0.0005198,
        "meta_mean_motion_ddot": 0,
        "tle_line1": "1 34451U 93036SU  25341.31508406  .00051980  00000+0  46845-2 0  9991",
        "tle_line2": "2 34451  74.0467  98.8077 0025061 122.0899 238.2724 14.95062608885540"
      },
      "geometry": {
        "type": "Point",
        "coordinates": [
          76.18044351565895,
          -51.09540534726791
        ]
      }
    },
    {
      "type": "Feature",
      "properties": {
        "norad_id": 34452,
        "name": "COSMOS 2251 DEB",
        "group": "cosmos-2251-debris",
        "lat": 44.53812208202413,
        "lon": -4.233590965060805,
        "alt_km": 560.7873533199336,
        "timestamp": "2025-12-08T05:48:09.428007+00:00",
        "meta_object_name": "COSMOS 2251 DEB",
        "meta_object_id": "1993-036SV",
        "meta_epoch": "2025-12-07T18:38:16.389312",
        "meta_mean_motion": 15.11490754,
        "meta_eccentricity": 0.00669595,
        "meta_inclination": 74.0359,
        "meta_ra_of_asc_node": 193.0894,
        "meta_arg_of_pericenter": 270.4773,
        "meta_mean_anomaly": 212.8947,
        "meta_ephemeris_type": 0,
        "meta_classification_type": "U",
        "meta_norad_cat_id": 34452,
        "meta_element_set_no": 999,
        "meta_rev_at_epoch": 90587,
        "meta_bstar": 0.0012074214,
        "meta_mean_motion_dot": 0.00021601,
        "meta_mean_motion_ddot": 0,
        "tle_line1": "1 34452U 93036SV  25341.77657858  .00021601  00000+0  12074-2 0  9992",
        "tle_line2": "2 34452  74.0359 193.0894 0066959 270.4773 212.8947 15.11490754905876"
      },
      "geometry": {
        "type": "Point",
        "coordinates": [
          -4.233590965060805,
          44.53812208202413
        ]
      }
    },
    {
      "type": "Feature",
      "properties": {
        "norad_id": 34453,
        "name": "COSMOS 2251 DEB",
        "group": "cosmos-2251-debris",
        "lat": 29.483360984783793,
        "lon": 118.68805070750018,
        "alt_km": 349.57562091965065,
        "timestamp": "2025-12-08T05:48:09.428017+00:00",
        "meta_object_name": "COSMOS 2251 DEB",
        "meta_object_id": "1993-036SW",
        "meta_epoch": "2025-12-07T18:57:28.955808",
        "meta_mean_motion": 15.68102112,
        "meta_eccentricity": 0.00220279,
        "meta_inclination": 74.1114,
        "meta_ra_of_asc_node": 110.4344,
        "meta_arg_of_pericenter": 343.4072,
        "meta_mean_anomaly": 16.6427,
        "meta_ephemeris_type": 0,
        "meta_classification_type": "U",
        "meta_norad_cat_id": 34453,
        "meta_element_set_no": 999,
        "meta_rev_at_epoch": 88789,
        "meta_bstar": 0.011753132,
        "meta_mean_motion_dot": 0.01470104,
        "meta_mean_motion_ddot": 0,
        "tle_line1": "1 34453U 93036SW  25341.78991847  .01470104  00000+0  11753-1 0  9992",
        "tle_line2": "2 34453  74.1114 110.4344 0022027 343.4072  16.6427 15.68102112887895"
      },
      "geometry": {
        "type": "Point",
        "coordinates": [
          118.68805070750018,
          29.483360984783793
        ]
      }
    },
    {
      "type": "Feature",
      "properties": {
        "norad_id": 34454,
        "name": "COSMOS 2251 DEB",
        "group": "cosmos-2251-debris",
        "lat": -73.21360187307556,
        "lon": 177.2742024874513,
        "alt_km": 767.0112154721019,
        "timestamp": "2025-12-08T05:48:09.428027+00:00",
        "meta_object_name": "COSMOS 2251 DEB",
        "meta_object_id": "1993-036SX",
        "meta_epoch": "2025-12-07T21:53:56.664960",
        "meta_mean_motion": 14.38795085,
        "meta_eccentricity": 0.00354139,
        "meta_inclination": 74.0586,
        "meta_ra_of_asc_node": 286.5272,
        "meta_arg_of_pericenter": 350.0742,
        "meta_mean_anomaly": 9.9708,
        "meta_ephemeris_type": 0,
        "meta_classification_type": "U",
        "meta_norad_cat_id": 34454,
        "meta_element_set_no": 999,
        "meta_rev_at_epoch": 87998,
        "meta_bstar": 0.0004449628,
        "meta_mean_motion_dot": 1.352e-05,
        "meta_mean_motion_ddot": 0,
        "tle_line1": "1 34454U 93036SX  25341.91246140  .00001352  00000+0  44496-3 0  9993",
        "tle_line2": "2 34454  74.0586 286.5272 0035413 350.0742   9.9708 14.38795085879985"
      },
      "geometry": {
        "type": "Point",
        "coordinates": [
          177.2742024874513,
          -73.21360187307556
        ]
      }
    }
  ]
}